name,postalZip,country,numberrange,currency,phone,email
Chester Douglas,23629,United States,44,"$1,409.68",1-157-334-8853,gravida.molestie.arcu@protonmail.ca
Mark Talley,24-64,India,47,"$1,690.56",1-545-417-2605,a.mi@google.com
Leroy Summers,229157,United Kingdom,44,"$1,052.50",1-417-511-9615,ac.mattis.velit@yahoo.net
Beverly Walls,73-834,Turkey,78,$806.12,1-854-843-0791,neque.morbi@icloud.net
Acton Leach,238352,Indonesia,73,$322.42,(342) 685-8274,dapibus.rutrum@icloud.net
Hedda Bryan,9934,Sweden,55,"$1,302.42",(672) 858-2277,neque.nullam@icloud.ca
Vivien Ferrell,821857,United Kingdom,57,$163.44,(376) 593-3044,risus.at@outlook.couk
Xander Barlow,656483,Turkey,41,"$1,772.64",1-341-528-7354,facilisis@hotmail.ca
Sasha Evans,45077,South Korea,25,"$1,915.99",(465) 852-1855,quis.massa@outlook.edu
Uriah Conner,181188,Ireland,58,"$1,603.11",1-256-724-0187,nulla.eu@outlook.com
Malik Hines,52003,Ireland,78,$893.98,1-553-409-4355,mollis.nec@google.org
Kathleen Stanley,35177,United States,44,$936.43,(158) 311-4222,ullamcorper.eu@aol.edu
Tanek Conway,06586,Austria,57,$475.26,(816) 864-2743,nec.mauris.blandit@hotmail.edu
Thor Russo,6791 JJ,Ireland,43,$984.51,(311) 353-6582,ad.litora@protonmail.com
Benjamin Bird,855133,Turkey,41,$424.10,1-512-428-8715,elementum.at.egestas@protonmail.com
Kyra Hanson,7673,Germany,21,"$1,400.65",1-930-749-6465,posuere@google.ca
Octavius Reyes,PU3 0WS,Peru,24,"$1,612.90",1-562-136-4985,sagittis.felis@google.couk
Hiroko Blanchard,3324,Austria,20,"$1,901.30",1-432-604-3570,urna@aol.com
Bevis Peters,83951,Turkey,77,"$1,457.90",1-632-546-1339,diam.vel.arcu@icloud.ca
Shoshana Leonard,L43 4QY,Ireland,27,"$1,663.23",(476) 827-1731,in.sodales.elit@outlook.com
Oprah Campos,65275-317,Vietnam,22,$617.21,1-617-711-4232,sed.sem.egestas@outlook.couk
Curran Bartlett,1607,Australia,63,"$1,411.96",(555) 676-0843,tempus.mauris@yahoo.ca
Dominic Vazquez,6465-3972,Vietnam,56,$518.82,1-714-344-0523,diam.nunc@outlook.couk
Kai Bradley,302782,Belgium,61,"$1,324.90",1-371-266-3733,dolor.sit@yahoo.org
Hu Sanchez,21081,New Zealand,28,"$1,916.86",(246) 223-3382,purus.maecenas.libero@outlook.couk
Thomas Fulton,5262,Chile,28,$960.35,1-614-942-9225,sed.congue@google.couk
Uta Weiss,27220,Belgium,61,"$1,334.44",(441) 905-5314,libero.morbi@yahoo.edu
Tobias Phelps,4734-7254,Norway,44,$985.65,1-514-636-7835,tincidunt.vehicula@protonmail.net
Karyn Blair,7730,China,60,$337.70,1-300-444-4137,urna@outlook.net
Kelsey Snow,86495-414,Philippines,48,$788.95,1-408-368-3684,nulla@hotmail.edu
Teagan Powell,556338,United Kingdom,64,$77.63,1-835-861-6775,in.ornare@aol.net
Orlando Mcconnell,45970-920,China,36,"$1,039.09",1-773-482-3385,nisi.a@yahoo.couk
Travis Dotson,47-73,Russian Federation,67,"$1,322.19",(758) 755-4697,tincidunt.tempus.risus@aol.couk
Camden Jacobson,44266,Ukraine,52,$73.73,(763) 828-8331,lacus.quisque@aol.couk
Ronan Larson,573968,Turkey,79,$932.71,(598) 927-1276,id@outlook.com
Chastity Sparks,56857,Australia,50,"$1,714.52",1-659-865-6554,blandit@google.ca
Ryan Juarez,02658,Ireland,48,"$1,570.28",1-787-373-1891,dolor.nulla.semper@outlook.net
Maile Moody,20735,Australia,27,$12.30,1-532-293-9118,maecenas.ornare.egestas@protonmail.net
Jin Armstrong,B6S 6L6,Sweden,39,"$1,620.57",(615) 593-4403,tincidunt.dui@yahoo.couk
Zephr Wise,7262 QO,Nigeria,19,"$1,718.58",(938) 616-7868,tellus@icloud.ca
Thaddeus Gillespie,34348,Indonesia,48,$271.84,1-561-718-7141,felis.ullamcorper@outlook.net
Finn Spears,70254-43076,Ukraine,20,"$1,376.00",1-445-845-9873,urna.nec@google.net
Damian Oneal,36232262,Norway,77,$654.10,(964) 682-1862,aliquam.tincidunt@yahoo.net
Salvador Delaney,34789,United States,46,$375.59,1-936-717-1210,ipsum.curabitur@aol.edu
Indigo Bruce,3827,United Kingdom,57,"$1,725.01",(771) 784-8732,dignissim.magna@google.com
Cassidy Martin,478256,China,66,"$1,413.84",1-460-559-1715,porttitor.interdum.sed@protonmail.com
Adena Bruce,54288,South Korea,44,$371.72,(800) 344-1717,sit@google.edu
Kalia Hernandez,24841,Vietnam,71,"$1,096.17",1-722-834-2542,habitant.morbi@hotmail.org
Sheila Figueroa,54515,Spain,18,"$1,751.14",1-937-756-7432,et.magnis@google.net
Chester Head,487786,Brazil,52,"$1,751.04",1-583-131-5329,dolor.donec@icloud.com
Mark Jefferson,IS8 1NB,United States,41,$900.01,1-498-477-1854,phasellus.fermentum@hotmail.net
Berk Peters,7286,South Korea,63,$863.85,(630) 955-9768,est.nunc.ullamcorper@aol.com
Talon Drake,6135,Nigeria,44,$584.99,1-544-577-1911,amet.ornare.lectus@aol.couk
Rana Nguyen,VJ1 3MJ,Turkey,79,"$1,550.22",(448) 501-8218,lacinia.mattis@aol.com
Castor Navarro,46-68,Russian Federation,70,$72.90,1-288-529-2488,mauris.rhoncus@icloud.net
Wang Hayden,00678,Austria,42,"$1,826.63",(571) 171-1342,parturient.montes@google.edu
Skyler Haley,775897,France,71,$806.30,(362) 723-7563,eget@outlook.ca
Noelle Bullock,67141-576,Colombia,22,$91.05,1-113-743-3047,nec.luctus@yahoo.edu
Byron Robinson,1950 ZR,India,71,"$1,793.47",1-803-828-4453,imperdiet.dictum@google.edu
Brenden Mays,40584,Ireland,59,$450.71,(778) 564-7780,a@google.org
Danielle Chase,11561,Ireland,71,$147.33,1-905-516-5851,aptent@google.com
Cora Contreras,7815,Philippines,38,$938.01,(707) 436-9385,neque@aol.ca
Renee Porter,311451,Costa Rica,72,$192.29,1-268-373-1706,egestas.duis.ac@outlook.com
Naomi Harrington,279453,Nigeria,67,"$1,278.15",1-163-563-8499,maecenas@yahoo.com
Dorothy Mckay,75096,Brazil,45,$749.11,(275) 138-2292,quisque@google.couk
Tanner Ayala,724396,Turkey,25,"$1,060.59",1-664-234-2163,vel.mauris.integer@yahoo.couk
Ina Charles,42184,Australia,39,"$1,705.86",1-477-738-8568,vulputate.velit@icloud.ca
Kadeem Dominguez,85470,Norway,72,"$1,312.73",1-174-483-3156,suspendisse.aliquet@outlook.net
Kareem Strickland,40014,Nigeria,53,$368.22,(237) 243-5464,elit@protonmail.edu
Xenos O'donnell,5584,Chile,72,$766.04,1-831-956-1678,vehicula.risus@icloud.org
Nita Blanchard,25078,United Kingdom,26,$13.27,1-370-701-4176,nulla.facilisi@hotmail.edu
Emerald Mosley,972248,Belgium,77,"$1,316.19",(483) 815-7365,pellentesque@yahoo.edu
Jana Cooper,04758-56142,Netherlands,52,$722.80,1-687-511-6771,consectetuer@aol.edu
Meredith Farley,13666,India,24,$237.64,1-347-768-3454,ac.facilisis@yahoo.couk
Suki Skinner,5881,Peru,53,"$1,622.72",(741) 732-1259,nec@yahoo.ca
Pearl Cleveland,53701,United Kingdom,42,"$1,136.70",1-235-476-2270,turpis.nulla@protonmail.ca
Acton Berry,65165,Nigeria,49,"$1,857.49",1-655-574-4363,tempor@outlook.org
Yael Kerr,1618,Belgium,56,"$1,065.88",(476) 380-9448,semper@google.edu
Elvis Stevens,936014,Austria,79,$175.80,(214) 233-5803,elit.aliquam.auctor@hotmail.org
Miranda Leon,8717,Brazil,64,"$1,158.52",1-356-512-6636,libero.et.tristique@aol.ca
Asher Blanchard,327354,Indonesia,65,$533.89,(515) 218-6494,a.purus@outlook.edu
Mira Patton,12468,Canada,29,$341.62,1-349-927-7014,amet@protonmail.com
Mary Nixon,22726,United Kingdom,55,$253.67,(704) 926-5641,ac.nulla@aol.net
Carson Oneil,37-383,Spain,59,$980.80,1-729-388-8411,volutpat.nunc@outlook.ca
Inez Melendez,47060,Ukraine,53,$147.93,(821) 452-9262,turpis.vitae@google.couk
Emmanuel Melendez,829943,Mexico,19,$363.34,(914) 812-3905,commodo@icloud.com
Julian Zamora,161170,France,20,"$1,526.76",1-673-511-4411,at.pretium@google.couk
Louis Richard,70650,South Africa,36,"$1,670.91",1-443-133-6524,gravida.sagittis.duis@hotmail.org
Kibo Wilkinson,5613,Peru,44,$519.42,1-299-687-1365,eget.venenatis@protonmail.com
Cassandra Cantu,622488,France,53,"$1,446.96",(635) 374-6424,varius.nam.porttitor@protonmail.com
Justina Hoover,17670,Belgium,25,$41.88,(494) 817-7371,mauris@hotmail.edu
Veronica Bruce,BX3 6PW,Germany,43,"$1,220.73",1-754-818-7597,sodales@yahoo.org
Amity Bradshaw,97-137,Italy,74,"$1,220.58",1-325-134-6393,mauris@outlook.ca
Elaine Davidson,481767,Russian Federation,43,$764.46,(592) 622-0723,curabitur@yahoo.ca
Carol Taylor,923462,Mexico,32,"$1,143.65",1-562-315-4063,vitae.aliquet@google.couk
Orla Sexton,392506,Peru,40,$824.69,1-442-893-1276,in.tempus@yahoo.com
Mikayla Mathis,68215,Colombia,35,"$1,748.48",1-862-953-5229,molestie.dapibus@protonmail.couk
Hanae Howell,7451,Turkey,54,$773.94,1-749-372-2536,vulputate.posuere@outlook.couk
Cameran Torres,536678,Canada,57,$374.74,1-448-832-6471,leo@yahoo.net
Garrison Holder,315468,Australia,52,$354.49,1-641-286-9090,nullam.suscipit@hotmail.org
